#aV2024  6 14  0  0  0.00000000     288 DD+AD WGS84 FIT  NGA
## 2318 432000.00000000   300.00000000 60475 0.0000000000000
+   31     2  3  4  5  6  7  8  9 10 11 12 13 14 15 16 17 18
+         19 20 21 22 23 24 25 26 27 28 29 30 31 32  0  0  0
+          0  0  0  0  0  0  0  0  0  0  0  0  0  0  0  0  0
+          0  0  0  0  0  0  0  0  0  0  0  0  0  0  0  0  0
+          0  0  0  0  0  0  0  0  0  0  0  0  0  0  0  0  0
++         2  2  2  2  2  2  2  2  2  2  2  2  2  2  2  2  2
++         2  2  2  2  2  2  2  2  2  2  2  2  2  2  0  0  0
++         0  0  0  0  0  0  0  0  0  0  0  0  0  0  0  0  0
++         0  0  0  0  0  0  0  0  0  0  0  0  0  0  0  0  0
++         0  0  0  0  0  0  0  0  0  0  0  0  0  0  0  0  0
%c cc cc ccc ccc cccc cccc cccc cccc ccccc ccccc ccccc ccccc
%c cc cc ccc ccc cccc cccc cccc cccc ccccc ccccc ccccc ccccc
%f  0.0000000  0.000000000  0.00000000000  0.000000000000000
%f  0.0000000  0.000000000  0.00000000000  0.000000000000000
%i    0    0    0    0      0      0      0      0         0
%i    0    0    0    0      0      0      0      0         0
/*      NGA, ST. LOUIS,MO.                                  
/*   EPHEMERIS COMPUTED FROM 2 DAYS OF DATA                 
/*   EPOCHA v9 SMOOTHER                                     
/*   G2296 IERS2010 SATIGS SATAPC                           
*  2024  6 14 20 15  0.00000000
P  2  -8494.766756  18766.553321 -16121.718035   -417.692970                    
V  2 -19135.725111   9953.571507  21343.714771      0.070591                    
P  3   5145.737880  18078.030158 -18975.171951    413.518219                    
V  3 -20559.329733 -11740.699626 -16784.087401      0.178517                    
P  4  -1028.302839  26446.600198   1061.725908    383.209561                    
V  4  -2881.108352   1142.660000 -31899.570558      0.080964                    
P  5  10853.268306 -10784.219717  21538.162413   -176.323947                    
V  5  24053.120241  13814.640749  -5076.926142     -0.013407                    
P  6  23509.011479  -3301.556012 -11963.345998    218.455229                    
V  6 -12798.345861   8347.237117 -27210.079455     -0.212018                    
P  7  11313.756078  11519.243998  21663.089566    -93.071999                    
V  7 -23049.194020  12624.973157   4993.685879      0.103476                    
P  8  -6782.311319  23523.456312   9636.544360    229.753841                    
V  8  -3137.406850 -12537.349435  28494.794643      0.181545                    
P  9   8316.457940  22078.109657  12065.874231    234.804252                    
V  9  -2570.034103  15456.742948 -26381.751109      0.145864                    
P 10 -23925.975514 -10084.960502  -6150.201058    -42.934847                    
V 10  -5859.993493  -5711.430043  30797.313057     -0.082272                    
P 11  23622.420798 -12034.603678   1030.955575   -685.452184                    
V 11   2318.696834   1885.318333 -31871.988199     -0.080717                    
P 12  -1508.640026 -18030.949309 -19740.855267   -514.101617                    
V 12  20485.288946  13378.522536 -13935.757885     -0.032205                    
P 13  13302.712847 -17236.607237  14835.453367    657.924907                    
V 13  -1316.191761  19343.734418  23555.623495      0.026473                    
P 14  23218.261770  12841.716520  -2738.973184    425.446978                    
V 14   1244.196296   4504.131967  31026.731076      0.091148                    
P 15   3698.002928 -24425.429786   8993.367575    170.163422                    
V 15   4996.458246  11702.130749  28357.692254      0.041810                    
P 16 -14930.316127   6801.846212  20642.870619   -264.255252                    
V 16 -21119.960866 -16635.941657  -9204.240981      0.104840                    
P 17  13085.314930  10128.199689 -20321.905549    694.516621                    
V 17  -3493.285700  26561.965417  10925.597036     -0.055638                    
P 18 -11474.185896 -10555.435563  21541.144711   -624.917271                    
V 18  24080.563557 -12765.885917   6378.493221     -0.049042                    
P 19  15181.236782    482.223873 -21945.864881    496.446108                    
V 19  -3408.619346  27235.305856  -2165.257764      0.053759                    
P 20  19221.643534  -5644.379975  17428.272455    373.839894                    
V 20  19827.755373   9904.239085 -18870.118631     -0.003672                    
P 21 -12896.073891  18786.598682 -12296.230075    115.449108                    
V 21 -15684.116525   6556.991861  26582.823921     -0.024660                    
P 22  22736.320071   8097.241214 -10330.951472    -27.295249                    
V 22   9370.351417  10556.220929  28063.349677     -0.049272                    
P 23 -20531.642993 -16152.693300   5385.391559    250.341195                    
V 23   6835.147748   1690.642259  31068.875867      0.091624                    
P 24   9300.912460 -19769.635671 -15237.299659   -477.696092                    
V 24  17204.419751  -8187.518773  22142.669907     -0.025503                    
P 25 -12184.158651 -19171.103361 -14312.348945    497.338890                    
V 25  16129.226139   7172.343341 -23645.970480      0.005365                    
P 26 -23521.960426  -1707.338233  12416.574435    136.947561                    
V 26 -12881.181517  -9800.408626 -25069.839909     -0.062434                    
P 27 -12655.536642  14714.741659  17647.028671    -28.208330                    
V 27  -1370.823445 -23187.218410  18468.581339     -0.013448                    
P 28 -22553.695511   1804.738861 -13920.624914   -288.891113                    
V 28  14206.863520 -10711.110247 -24423.225606     -0.167928                    
P 29  -4195.993385 -24201.296016   9896.021089   -594.209989                    
V 29   3671.251940 -12344.651867 -28599.510389      0.017165                    
P 30  20317.607669   3409.844636  17055.212270   -374.238760                    
V 30 -17882.455349  11833.271478  18837.724532      0.061935                    
P 31 -24791.768030   9344.903525  -4070.843846   -227.394045                    
V 31   3135.517478  -4542.861258 -30792.283948      0.001897                    
P 32 -14396.927198  -7395.366514 -20881.810110   -616.216519                    
V 32   1265.850246 -26943.723193   8387.964079      0.011666                    
EOF
